STARLINK-33874
1 63825U 25092X   25291.93029887  .00059952  00000-0  21707-2 0  9996
2 63825  42.9971 253.1855 0000981 261.9112  98.1628 15.27577028 26980